{
    "links": {
        "self": "http://www.neowsapp.com/rest/v1/neo/3638336?api_key=iIulBulltgU6a56xZRHN4H3l9WmuAYTsLGpBGhQ2"
    },
    "id": "3638336",
    "neo_reference_id": "3638336",
    "name": "(2013 JR17)",
    "designation": "2013 JR17",
    "nasa_jpl_url": "http://ssd.jpl.nasa.gov/sbdb.cgi?sstr=3638336",
    "absolute_magnitude_h": 25.5,
    "estimated_diameter": {
        "kilometers": {
            "estimated_diameter_min": 0.0211132445,
            "estimated_diameter_max": 0.0472106499
        },
        "meters": {
            "estimated_diameter_min": 21.113244479,
            "estimated_diameter_max": 47.2106498806
        },
        "miles": {
            "estimated_diameter_min": 0.0131191578,
            "estimated_diameter_max": 0.0293353287
        },
        "feet": {
            "estimated_diameter_min": 69.2691770164,
            "estimated_diameter_max": 154.8905885541
        }
    },
    "is_potentially_hazardous_asteroid": false,
    "close_approach_data": [
        {
            "close_approach_date": "2013-05-30",
            "close_approach_date_full": "2013-May-30 18:50",
            "epoch_date_close_approach": 1369939800000,
            "relative_velocity": {
                "kilometers_per_second": "5.5129279414",
                "kilometers_per_hour": "19846.5405889479",
                "miles_per_hour": "12331.8685120604"
            },
            "miss_distance": {
                "astronomical": "0.0960056018",
                "lunar": "37.3461791002",
                "kilometers": "14362233.537348166",
                "miles": "8924278.0958340508"
            },
            "orbiting_body": "Earth"
        }
    ],
    "orbital_data": {
        "orbit_id": "5",
        "orbit_determination_date": "2017-04-06 08:45:54",
        "first_observation_date": "2013-05-08",
        "last_observation_date": "2013-05-10",
        "data_arc_in_days": 2,
        "observations_used": 12,
        "orbit_uncertainty": "8",
        "minimum_orbit_intersection": ".0851971",
        "jupiter_tisserand_invariant": "3.628",
        "epoch_osculation": "2456421.5",
        "eccentricity": ".4685840840512275",
        "semi_major_axis": "2.070333191230341",
        "inclination": ".825708187103272",
        "ascending_node_longitude": "81.17593551080647",
        "orbital_period": "1088.074904884855",
        "perihelion_distance": "1.100208009136817",
        "perihelion_argument": "174.3924126707141",
        "aphelion_distance": "3.040458373323865",
        "perihelion_time": "2456447.230968000048",
        "mean_anomaly": "351.4866628773158",
        "mean_motion": ".3308595744500669",
        "equinox": "J2000",
        "orbit_class": {
            "orbit_class_type": "AMO",
            "orbit_class_description": "Near-Earth asteroid orbits similar to that of 1221 Amor",
            "orbit_class_range": "1.017 AU < q (perihelion) < 1.3 AU"
        }
    },
    "is_sentry_object": false
}